NORAD_CAT_ID,OBJECT_NAME,OBJECT_TYPE,EPOCH,MEAN_MOTION,ECCENTRICITY,INCLINATION,RA_OF_ASC_NODE,ARG_OF_PERICENTER,MEAN_ANOMALY,BSTAR,MEAN_MOTION_DOT,MEAN_MOTION_DDOT,TLE_LINE0,TLE_LINE1,TLE_LINE2,SEMIMAJOR_AXIS,PERIOD,APOGEE,PERIGEE,DECAYED
51854.0,STARLINK-3541,PAYLOAD,2024-03-31 21:00:10,15.08816786,0.0001303,53.2182,316.6239,75.5765,284.5371,0.00016989,2.415e-05,0.0,0 STARLINK-3541,1 51854U 22022C   24091.87512316  .00002415  00000-0  16989-3 0  9998,2 51854  53.2182 316.6239 0001303  75.5765 284.5371 15.08816786116163,6917.951,95.439,540.718,538.915,0.0
51854.0,STARLINK-3541,PAYLOAD,2024-04-01 14:29:24,15.08832927,0.000124,53.2178,313.3551,77.1997,282.9134,4.1165e-05,3.67e-06,0.0,0 STARLINK-3541,1 51854U 22022C   24092.60375987  .00000367  00000-0  41165-4 0  9990,2 51854  53.2178 313.3551 0001240  77.1997 282.9134 15.08832927116270,6917.902,95.438,540.625,538.909,0.0
51854.0,STARLINK-3541,PAYLOAD,2024-04-01 20:50:57,15.08832125,0.000119,53.217,312.1653,77.6971,282.4154,6.5919e-05,7.61e-06,0.0,0 STARLINK-3541,1 51854U 22022C   24092.86872238  .00000761  00000-0  65919-4 0  9990,2 51854  53.2170 312.1653 0001190  77.6971 282.4154 15.08832125116315,6917.904,95.438,540.593,538.946,0.0
51854.0,STARLINK-3541,PAYLOAD,2024-04-02 07:58:39,15.08840528,0.0001128,53.2171,310.0837,78.7193,281.3926,0.00029599,4.426e-05,0.0,0 STARLINK-3541,1 51854U 22022C   24093.33240275  .00004426  00000-0  29599-3 0  9998,2 51854  53.2171 310.0837 0001128  78.7193 281.3926 15.08840528116384,6917.879,95.438,540.524,538.963,0.0
51854.0,STARLINK-3541,PAYLOAD,2024-04-02 20:41:44,15.08847464,7.82e-05,53.2175,307.7048,64.691,295.4163,0.00048022,7.365e-05,0.0,0 STARLINK-3541,1 51854U 22022C   24093.86232112  .00007365  00000-0  48022-3 0  9994,2 51854  53.2175 307.7048 0000782  64.6910 295.4163 15.08847464116465,6917.858,95.437,540.264,539.182,0.0
51854.0,STARLINK-3541,PAYLOAD,2024-04-02 23:52:30,15.08859816,0.0001094,53.2179,307.1073,89.8762,270.2355,0.00072249,0.00011235,0.0,0 STARLINK-3541,1 51854U 22022C   24093.99479725  .00011235  00000-0  72249-3 0  9990,2 51854  53.2179 307.1073 0001094  89.8762 270.2355 15.08859816116482,6917.82,95.436,540.442,538.928,0.0
51854.0,STARLINK-3541,PAYLOAD,2024-04-03 14:10:57,15.08873912,0.0001119,53.2181,304.4306,86.8479,273.2641,0.00067777,0.00010525,0.0,0 STARLINK-3541,1 51854U 22022C   24094.59094570  .00010525  00000-0  67777-3 0  9999,2 51854  53.2181 304.4306 0001119  86.8479 273.2641 15.08873912116578,6917.777,95.435,540.416,538.868,0.0
51854.0,STARLINK-3541,PAYLOAD,2024-04-03 20:32:29,15.0886789,8.96e-05,53.2167,303.2436,92.0123,268.0971,0.00031613,4.751e-05,0.0,0 STARLINK-3541,1 51854U 22022C   24094.85590226  .00004751  00000-0  31613-3 0  9991,2 51854  53.2167 303.2436 0000896  92.0123 268.0971 15.08867890116610,6917.795,95.436,540.28,539.04,0.0
51854.0,STARLINK-3541,PAYLOAD,2024-04-03 23:43:16,15.08866144,9.88e-05,53.2171,302.649,96.5748,263.5357,0.00021422,3.126e-05,0.0,0 STARLINK-3541,1 51854U 22022C   24094.98838046  .00003126  00000-0  21422-3 0  9992,2 51854  53.2171 302.6490 0000988  96.5748 263.5357 15.08866144116633,6917.8,95.436,540.349,538.982,0.0
51854.0,STARLINK-3541,PAYLOAD,2024-04-04 20:23:17,15.08834847,0.0001024,53.217,298.782,86.675,273.4359,-0.00027131,-4.602e-05,0.0,0 STARLINK-3541,1 51854U 22022C   24095.84951199 -.00004602  00000-0 -27131-3 0  9998,2 51854  53.2170 298.7820 0001024  86.6750 273.4359 15.08834847116760,6917.896,95.438,540.47,539.053,0.0
51854.0,STARLINK-3541,PAYLOAD,2024-04-05 13:52:33,15.08827084,9.33e-05,53.2168,295.5106,94.541,265.5689,-8.0858e-05,-1.574e-05,0.0,0 STARLINK-3541,1 51854U 22022C   24096.57816113 -.00001574  00000-0 -80858-4 0  9996,2 51854  53.2168 295.5106 0000933  94.5410 265.5689 15.08827084116873,6917.92,95.438,540.43,539.139,0.0
51854.0,STARLINK-3541,PAYLOAD,2024-04-05 20:14:05,15.08832379,9.93e-05,53.2165,294.3221,93.497,266.6136,2.3102e-05,8e-07,0.0,0 STARLINK-3541,1 51854U 22022C   24096.84312081  .00000080  00000-0  23102-4 0  9999,2 51854  53.2165 294.3221 0000993  93.4970 266.6136 15.08832379116917,6917.904,95.438,540.456,539.082,0.0
51854.0,STARLINK-3541,PAYLOAD,2024-04-06 05:46:24,15.08838942,9.87e-05,53.2167,292.5378,92.1232,267.9874,0.00015147,2.124e-05,0.0,0 STARLINK-3541,1 51854U 22022C   24097.24055994  .00002124  00000-0  15147-3 0  9991,2 51854  53.2167 292.5378 0000987  92.1232 267.9874 15.08838942116973,6917.884,95.438,540.431,539.066,0.0
51854.0,STARLINK-3541,PAYLOAD,2024-04-06 13:43:20,15.0883603,0.0001011,53.2168,291.0511,89.0009,271.1099,0.00039394,5.987e-05,0.0,0 STARLINK-3541,1 51854U 22022C   24097.57176418  .00005987  00000-0  39394-3 0  9992,2 51854  53.2168 291.0511 0001011  89.0009 271.1099 15.08836030117022,6917.893,95.438,540.457,539.058,0.0
51854.0,STARLINK-3541,PAYLOAD,2024-04-06 20:04:53,15.08829464,0.0001088,53.2174,289.8624,91.2455,268.8662,0.00021441,3.125e-05,0.0,0 STARLINK-3541,1 51854U 22022C   24097.83673129  .00003125  00000-0  21441-3 0  9998,2 51854  53.2174 289.8624 0001088  91.2455 268.8662 15.08829464117069,6917.913,95.438,540.53,539.025,0.0
51854.0,STARLINK-3541,PAYLOAD,2024-04-07 21:31:03,15.08838053,0.000124,53.2185,285.1067,107.0196,253.0932,0.00018413,2.644e-05,0.0,0 STARLINK-3541,1 51854U 22022C   24098.89657264  .00002644  00000-0  18413-3 0  9997,2 51854  53.2185 285.1067 0001240 107.0196 253.0932 15.08838053117227,6917.886,95.438,540.609,538.894,0.0
51854.0,STARLINK-3541,PAYLOAD,2024-04-08 05:27:59,15.08845815,8.69e-05,53.2163,283.6165,78.6831,281.4258,0.00027691,4.123e-05,0.0,0 STARLINK-3541,1 51854U 22022C   24099.22776942  .00004123  00000-0  27691-3 0  9992,2 51854  53.2163 283.6165 0000869  78.6831 281.4258 15.08845815117275,6917.863,95.437,540.329,539.126,0.0
51854.0,STARLINK-3541,PAYLOAD,2024-04-08 21:21:50,15.08842109,0.0001237,53.219,280.6428,76.4646,283.6484,0.00011786,1.588e-05,0.0,0 STARLINK-3541,1 51854U 22022C   24099.89017271  .00001588  00000-0  11786-3 0  9998,2 51854  53.2190 280.6428 0001237  76.4646 283.6484 15.08842109117373,6917.874,95.437,540.595,538.883,0.0
51854.0,STARLINK-3541,PAYLOAD,2024-04-09 05:18:46,15.0884512,0.000128,53.2213,279.1566,75.4884,284.625,0.00021948,3.207e-05,0.0,0 STARLINK-3541,1 51854U 22022C   24100.22137191  .00003207  00000-0  21948-3 0  9993,2 51854  53.2213 279.1566 0001280  75.4884 284.6250 15.08845120117420,6917.865,95.437,540.615,538.844,0.0
51854.0,STARLINK-3541,PAYLOAD,2024-04-09 21:12:37,15.08843572,0.0001332,53.2227,276.1838,74.8357,285.2783,-6.2485e-05,-1.282e-05,0.0,0 STARLINK-3541,1 51854U 22022C   24100.88377288 -.00001282  00000-0 -62485-4 0  9993,2 51854  53.2227 276.1838 0001332  74.8357 285.2783 15.08843572117528,6917.869,95.437,540.656,538.813,0.0
51854.0,STARLINK-3541,PAYLOAD,2024-04-10 11:31:06,15.08841997,0.0001332,53.2185,273.5062,89.612,270.5025,0.00014132,1.962e-05,0.0,0 STARLINK-3541,1 51854U 22022C   24101.47993504  .00001962  00000-0  14132-3 0  9992,2 51854  53.2185 273.5062 0001332  89.6120 270.5025 15.08841997117618,6917.874,95.437,540.661,538.818,0.0
51854.0,STARLINK-3541,PAYLOAD,2024-04-10 17:52:38,15.088416,0.0001358,53.2198,272.3172,87.8842,272.2306,0.00012582,1.715e-05,0.0,0 STARLINK-3541,1 51854U 22022C   24101.74489563  .00001715  00000-0  12582-3 0  9990,2 51854  53.2198 272.3172 0001358  87.8842 272.2306 15.08841600117656,6917.875,95.437,540.68,538.801,0.0
51854.0,STARLINK-3541,PAYLOAD,2024-04-11 14:32:40,15.08838185,0.000125,53.22,268.4504,98.3304,261.7829,0.00027235,4.049e-05,0.0,0 STARLINK-3541,1 51854U 22022C   24102.60601896  .00004049  00000-0  27235-3 0  9995,2 51854  53.2200 268.4504 0001250  98.3304 261.7829 15.08838185117787,6917.886,95.438,540.616,538.886,0.0
51854.0,STARLINK-3541,PAYLOAD,2024-04-11 17:43:26,15.08835747,0.0001093,53.2179,267.8561,96.1857,263.926,0.00032446,4.879e-05,0.0,0 STARLINK-3541,1 51854U 22022C   24102.73850074  .00004879  00000-0  32446-3 0  9994,2 51854  53.2179 267.8561 0001093  96.1857 263.9260 15.08835747117809,6917.893,95.438,540.515,539.002,0.0
51854.0,STARLINK-3541,PAYLOAD,2024-04-12 14:23:27,15.08835673,0.000101,53.2171,263.9903,91.0566,269.0541,0.00010019,1.307e-05,0.0,0 STARLINK-3541,1 51854U 22022C   24103.59962165  .00001307  00000-0  10019-3 0  9999,2 51854  53.2171 263.9903 0001010  91.0566 269.0541 15.08835673117939,6917.894,95.438,540.457,539.06,0.0
51854.0,STARLINK-3541,PAYLOAD,2024-04-13 14:14:14,15.08843229,9.69e-05,53.2167,259.5295,88.6767,271.4336,0.00016201,2.292e-05,0.0,0 STARLINK-3541,1 51854U 22022C   24104.59321815  .00002292  00000-0  16201-3 0  9994,2 51854  53.2167 259.5295 0000969  88.6767 271.4336 15.08843229118088,6917.871,95.437,540.406,539.065,0.0
51854.0,STARLINK-3541,PAYLOAD,2024-04-13 17:25:00,15.0884297,9.65e-05,53.2173,258.9357,88.0851,272.0251,0.00014532,2.026e-05,0.0,0 STARLINK-3541,1 51854U 22022C   24104.72569829  .00002026  00000-0  14532-3 0  9998,2 51854  53.2173 258.9357 0000965  88.0851 272.0251 15.08842970118109,6917.871,95.437,540.404,539.069,0.0
51854.0,STARLINK-3541,PAYLOAD,2024-04-14 17:15:47,15.08846905,9.85e-05,53.2173,254.4744,91.8621,268.2484,0.00013284,1.827e-05,0.0,0 STARLINK-3541,1 51854U 22022C   24105.71929564  .00001827  00000-0  13284-3 0  9995,2 51854  53.2173 254.4744 0000985  91.8621 268.2484 15.08846905118252,6917.859,95.437,540.406,539.043,0.0
51854.0,STARLINK-3541,PAYLOAD,2024-04-15 09:09:38,15.08847093,0.0001016,53.2174,251.501,84.8873,275.2235,0.00015435,2.17e-05,0.0,0 STARLINK-3541,1 51854U 22022C   24106.38169397  .00002170  00000-0  15435-3 0  9991,2 51854  53.2174 251.5010 0001016  84.8873 275.2235 15.08847093118356,6917.859,95.437,540.427,539.021,0.0
51854.0,STARLINK-3541,PAYLOAD,2024-04-15 13:55:47,15.0884401,0.0001069,53.2174,250.6058,74.6429,285.4681,0.00010524,1.388e-05,0.0,0 STARLINK-3541,1 51854U 22022C   24106.58041599  .00001388  00000-0  10524-3 0  9990,2 51854  53.2174 250.6058 0001069  74.6429 285.4681 15.08844010118387,6917.868,95.437,540.473,538.994,0.0
